$$SOE
2459580.500000000, A.D. 2022-Jan-01 00:00:00.0000, -2.537241873758433E+08, 3.918002959359545E+08, 1.217983760297902E+08,
2459587.500000000, A.D. 2022-Jan-08 00:00:00.0000, -2.636833279904769E+08, 3.903316088244293E+08, 1.208075990136300E+08,
2459594.500000000, A.D. 2022-Jan-15 00:00:00.0000, -2.735312225327795E+08, 3.886981374827610E+08, 1.197658193124458E+08,
2459601.500000000, A.D. 2022-Jan-22 00:00:00.0000, -2.832664144496108E+08, 3.869044146905625E+08, 1.186746609273015E+08,
2459608.500000000, A.D. 2022-Jan-29 00:00:00.0000, -2.928875804089635E+08, 3.849548625622239E+08, 1.175357026661906E+08,
2459615.500000000, A.D. 2022-Feb-05 00:00:00.0000, -3.023935235137715E+08, 3.828537937380528E+08, 1.163504793678927E+08,
2459622.500000000, A.D. 2022-Feb-12 00:00:00.0000, -3.117831649022275E+08, 3.806054116685157E+08, 1.151204828676997E+08,
2459629.500000000, A.D. 2022-Feb-19 00:00:00.0000, -3.210555350310261E+08, 3.782138123292829E+08, 1.138471630119267E+08,
2459636.500000000, A.D. 2022-Feb-26 00:00:00.0000, -3.302097659243068E+08, 3.756829866190627E+08, 1.125319287756775E+08,
2459643.500000000, A.D. 2022-Mar-05 00:00:00.0000, -3.392450841997912E+08, 3.730168228010331E+08, 1.111761494123935E+08,
2459650.500000000, A.D. 2022-Mar-12 00:00:00.0000, -3.481608046218675E+08, 3.702191089020481E+08, 1.097811556034887E+08,
2459657.500000000, A.D. 2022-Mar-19 00:00:00.0000, -3.569563240833395E+08, 3.672935350798762E+08, 1.083482405984989E+08,
2459664.500000000, A.D. 2022-Mar-26 00:00:00.0000, -3.656311159675171E+08, 3.642436959368753E+08, 1.068786613385218E+08,
2459671.500000000, A.D. 2022-Apr-02 00:00:00.0000, -3.741847247982765E+08, 3.610730927105609E+08, 1.053736395481397E+08,
2459678.500000000, A.D. 2022-Apr-09 00:00:00.0000, -3.826167608828070E+08, 3.577851353339448E+08, 1.038343627678753E+08,
2459685.500000000, A.D. 2022-Apr-16 00:00:00.0000, -3.909268945681225E+08, 3.543831450093137E+08, 1.022619853450879E+08,
2459692.500000000, A.D. 2022-Apr-23 00:00:00.0000, -3.991148513601747E+08, 3.508703583710272E+08, 1.006576295861870E+08,
2459699.500000000, A.D. 2022-Apr-30 00:00:00.0000, -4.071804097568755E+08, 3.472499309854951E+08, 9.902238705669060E+07,
2459706.500000000, A.D. 2022-May-07 00:00:00.0000, -4.151233987131260E+08, 3.435249382087721E+08, 9.735731958540040E+07,
2459713.500000000, A.D. 2022-May-14 00:00:00.0000, -4.229436933307208E+08, 3.396983764335229E+08, 9.566346009221132E+07,
2459720.500000000, A.D. 2022-May-21 00:00:00.0000, -4.306412107891421E+08, 3.357731654795662E+08, 9.394181348731382E+07,
2459727.500000000, A.D. 2022-May-28 00:00:00.0000, -4.382159069814951E+08, 3.317521511664312E+08, 9.219335760709342E+07,
2459734.500000000, A.D. 2022-Jun-04 00:00:00.0000, -4.456677735641686E+08, 3.276381077526116E+08, 9.041904413548928E+07,
2459741.500000000, A.D. 2022-Jun-11 00:00:00.0000, -4.529968352621233E+08, 3.234337402415448E+08, 8.861979949761115E+07,
2459748.500000000, A.D. 2022-Jun-18 00:00:00.0000, -4.602031473786668E+08, 3.191416865660159E+08, 8.679652572322431E+07,
2459755.500000000, A.D. 2022-Jun-25 00:00:00.0000, -4.672867934686654E+08, 3.147645196167790E+08, 8.495010127492721E+07,
2459762.500000000, A.D. 2022-Jul-02 00:00:00.0000, -4.742478830302746E+08, 3.103047490490531E+08, 8.308138182370938E+07,
2459769.500000000, A.D. 2022-Jul-09 00:00:00.0000, -4.810865488147023E+08, 3.057648230435296E+08, 8.119120095101458E+07,
2459776.500000000, A.D. 2022-Jul-16 00:00:00.0000, -4.878029437997691E+08, 3.011471311045090E+08, 7.928037087141930E+07,
2459783.500000000, A.D. 2022-Jul-23 00:00:00.0000, -4.943972400173711E+08, 2.964540079731144E+08, 7.734968338466030E+07,
2459790.500000000, A.D. 2022-Jul-30 00:00:00.0000, -5.008696291428856E+08, 2.916877353026791E+08, 7.539991077604592E+07,
2459797.500000000, A.D. 2022-Aug-06 00:00:00.0000, -5.072203212392138E+08, 2.868505417450160E+08, 7.343180638879146E+07,
2459804.500000000, A.D. 2022-Aug-13 00:00:00.0000, -5.134495424711378E+08, 2.819446042019114E+08, 7.144610516960427E+07,
2459811.500000000, A.D. 2022-Aug-20 00:00:00.0000, -5.195575333534120E+08, 2.769720497391951E+08, 6.944352429126501E+07,
2459818.500000000, A.D. 2022-Aug-27 00:00:00.0000, -5.255445474585564E+08, 2.719349574382442E+08, 6.742476378749539E+07,
2459825.500000000, A.D. 2022-Sep-03 00:00:00.0000, -5.314108503304245E+08, 2.668353600757219E+08, 6.539050716912492E+07,
2459832.500000000, A.D. 2022-Sep-10 00:00:00.0000, -5.371567185076187E+08, 2.616752456566712E+08, 6.334142201593867E+07,
2459839.500000000, A.D. 2022-Sep-17 00:00:00.0000, -5.427824386217457E+08, 2.564565588003470E+08, 6.127816054195800E+07,
2459846.500000000, A.D. 2022-Sep-24 00:00:00.0000, -5.482883065047481E+08, 2.511812019288472E+08, 5.920136012496401E+07,
2459853.500000000, A.D. 2022-Oct-01 00:00:00.0000, -5.536746260604130E+08, 2.458510362369822E+08, 5.711164377687736E+07,
2459860.500000000, A.D. 2022-Oct-08 00:00:00.0000, -5.589417074884484E+08, 2.404678829660667E+08, 5.500962056073461E+07,
2459867.500000000, A.D. 2022-Oct-15 00:00:00.0000, -5.640898657894988E+08, 2.350335261815089E+08, 5.289588613816802E+07,
2459874.500000000, A.D. 2022-Oct-22 00:00:00.0000, -5.691194217301507E+08, 2.295497153715910E+08, 5.077102351035185E+07,
2459881.500000000, A.D. 2022-Oct-29 00:00:00.0000, -5.740307027673470E+08, 2.240181652759659E+08, 4.863560351176690E+07,
2459888.500000000, A.D. 2022-Nov-05 00:00:00.0000, -5.788240418291935E+08, 2.184405556865406E+08, 4.649018508851235E+07,
2459895.500000000, A.D. 2022-Nov-12 00:00:00.0000, -5.834997759138825E+08, 2.128185324889322E+08, 4.433531564522858E+07,
2459902.500000000, A.D. 2022-Nov-19 00:00:00.0000, -5.880582452237144E+08, 2.071537089916861E+08, 4.217153144898814E+07,
2459909.500000000, A.D. 2022-Nov-26 00:00:00.0000, -5.924997925694722E+08, 2.014476671473857E+08, 3.999935803400332E+07,
2459916.500000000, A.D. 2022-Dec-03 00:00:00.0000, -5.968247628765050E+08, 1.957019586553758E+08, 3.781931059137234E+07,
2459923.500000000, A.D. 2022-Dec-10 00:00:00.0000, -6.010335027445462E+08, 1.899181059658749E+08, 3.563189434164517E+07,
2459930.500000000, A.D. 2022-Dec-17 00:00:00.0000, -6.051263600343264E+08, 1.840976031615175E+08, 3.343760488636389E+07,
2459937.500000000, A.D. 2022-Dec-24 00:00:00.0000, -6.091036833695561E+08, 1.782419166515144E+08, 3.123692852365059E+07,
2459944.500000000, A.D. 2022-Dec-31 00:00:00.0000, -6.129658211947230E+08, 1.723524857869479E+08, 2.903034250432550E+07,
2459951.500000000, A.D. 2023-Jan-07 00:00:00.0000, -6.167131202641836E+08, 1.664307243605096E+08, 2.681831529644382E+07,
2459958.500000000, A.D. 2023-Jan-14 00:00:00.0000, -6.203459255281180E+08, 1.604780234883187E+08, 2.460130707976715E+07,
2459965.500000000, A.D. 2023-Jan-21 00:00:00.0000, -6.238645820591427E+08, 1.544957527023229E+08, 2.237977027052303E+07,
2459972.500000000, A.D. 2023-Jan-28 00:00:00.0000, -6.272694353501236E+08, 1.484852590591840E+08, 2.015414972452108E+07,
2459979.500000000, A.D. 2023-Feb-04 00:00:00.0000, -6.305608301897876E+08, 1.424478672942556E+08, 1.792488288565374E+07,
2459986.500000000, A.D. 2023-Feb-11 00:00:00.0000, -6.337391099100891E+08, 1.363848808276896E+08, 1.569240002908862E+07,
2459993.500000000, A.D. 2023-Feb-18 00:00:00.0000, -6.368046160677061E+08, 1.302975828005254E+08, 1.345712453814271E+07,
2460000.500000000, A.D. 2023-Feb-25 00:00:00.0000, -6.397576882957675E+08, 1.241872369801924E+08, 1.121947317799105E+07,
2460007.500000000, A.D. 2023-Mar-04 00:00:00.0000, -6.425986642223399E+08, 1.180550885553797E+08, 8.979856358862676E+06,
2460014.500000000, A.D. 2023-Mar-11 00:00:00.0000, -6.453278794257702E+08, 1.119023648218044E+08, 6.738678386648543E+06,
2460021.500000000, A.D. 2023-Mar-18 00:00:00.0000, -6.479456673786345E+08, 1.057302757103410E+08, 4.496337693081461E+06,
2460028.500000000, A.D. 2023-Mar-25 00:00:00.0000, -6.504523591759163E+08, 9.954001411118868E+07, 2.253227023511082E+06,
2460035.500000000, A.D. 2023-Apr-01 00:00:00.0000, -6.528482826219220E+08, 9.333275638829738E+07, 9.733576007261872E+03,
2460042.500000000, A.D. 2023-Apr-08 00:00:00.0000, -6.551337612905234E+08, 8.710966430973846E+07, -2.233760751165088E+06,
2460049.500000000, A.D. 2023-Apr-15 00:00:00.0000, -6.573091158953911E+08, 8.087188728853838E+07, -4.476878879319511E+06,
2460056.500000000, A.D. 2023-Apr-22 00:00:00.0000, -6.593746661609720E+08, 7.462056188307080E+07, -6.719248251389690E+06,
2460063.500000000, A.D. 2023-Apr-29 00:00:00.0000, -6.613307304584200E+08, 6.835681081110683E+07, -8.960500782692675E+06,
2460070.500000000, A.D. 2023-May-06 00:00:00.0000, -6.631776249655894E+08, 6.208174325946280E+07, -1.120027275316253E+07,
2460077.500000000, A.D. 2023-May-13 00:00:00.0000, -6.649156633271918E+08, 5.579645559631950E+07, -1.343820462436145E+07,
2460084.500000000, A.D. 2023-May-20 00:00:00.0000, -6.665451565803976E+08, 4.950203199583972E+07, -1.567394084283357E+07,
2460091.500000000, A.D. 2023-May-27 00:00:00.0000, -6.680664131517262E+08, 4.319954494627963E+07, -1.790712964994592E+07,
2460098.500000000, A.D. 2023-Jun-03 00:00:00.0000, -6.694797388670516E+08, 3.689005566801687E+07, -2.013742290140465E+07,
2460105.500000000, A.D. 2023-Jun-10 00:00:00.0000, -6.707854369506035E+08, 3.057461442809381E+07, -2.236447589982552E+07,
2460112.500000000, A.D. 2023-Jun-17 00:00:00.0000, -6.719838079238234E+08, 2.425426069161487E+07, -2.458794725353356E+07,
2460119.500000000, A.D. 2023-Jun-24 00:00:00.0000, -6.730751490840104E+08, 1.793002316619951E+07, -2.680749878648882E+07,
2460126.500000000, A.D. 2023-Jul-01 00:00:00.0000, -6.740597533094316E+08, 1.160292056824254E+07, -2.902279545493406E+07,
2460133.500000000, A.D. 2023-Jul-08 00:00:00.0000, -6.749379088646069E+08, 5.273963933587218E+06, -3.123350505005468E+07,
2460140.500000000, A.D. 2023-Jul-15 00:00:00.0000, -6.757099014825453E+08, -1.055842356677076E+06, -3.343929780080655E+07,
2460147.500000000, A.D. 2023-Jul-22 00:00:00.0000, -6.763760152025442E+08, -7.385501868914641E+06, -3.563984628439547E+07,
$$EOE